STARLINK-36572          
1 67536U 26014E   26037.50002314  .00162422  00000+0  83448-3 0  9999
2 67536  97.2843 280.8308 0001285 102.0564  99.8330 15.80777075  3670
STARLINK-36561          
1 67537U 26014F   26037.50002314 -.01918543  00000+0 -12892-1 0  9999
2 67537  97.2787 280.8293 0001901  75.0815 129.5598 15.78265177  3673
STARLINK-36397          
1 67538U 26014G   26037.50002314  .00037397  00000+0  25078-3 0  9998
2 67538  97.2820 280.8211 0001635  88.5192  98.1394 15.75163154  3677
STARLINK-36573          
1 67539U 26014H   26037.50002314  .00136505  00000+0  70359-3 0  9992
2 67539  97.2815 280.8348 0001534 105.2865 113.1552 15.80775444  3676
STARLINK-36585          
1 67540U 26014J   26037.50002314 -.01957798  00000+0 -12250-1 0  9996
2 67540  97.2776 280.8356 0001956  89.0097 134.3565 15.79899401  3674
STARLINK-36579          
1 67541U 26014K   26037.50002314  .00126588  00000+0  65222-3 0  9998
2 67541  97.2841 280.8423 0001354  77.9513 153.0471 15.80810964  3677
STARLINK-35934          
1 67542U 26014L   26037.50002314  .00122657  00000+0  63205-3 0  9991
2 67542  97.2826 280.8446 0001777  88.6224 150.4501 15.80818296  3663
STARLINK-36581          
1 67543U 26014M   26037.50002314  .00063530  00000+0  32973-3 0  9994
2 67543  97.2779 280.8459 0001360  56.9836 188.8708 15.80833378  3673
STARLINK-36565          
1 67544U 26014N   26037.50002314  .00119000  00000+0  61399-3 0  9993
2 67544  97.2839 280.8499 0001465  76.4793 175.4404 15.80800456  3676
STARLINK-36583          
1 67545U 26014P   26037.50002314 -.01862803  00000+0 -13008-1 0  9995
2 67545  97.2830 280.8498 0001767  82.4592 170.2913 15.77312093  3675
STARLINK-36580          
1 67546U 26014Q   26037.50002314  .00258183  00000+0  13133-2 0  9993
2 67546  97.2769 280.8539 0001193  82.6964 183.0649 15.80746578  3672
STARLINK-36584          
1 67547U 26014R   26037.50002314  .00149583  00000+0  76891-3 0  9998
2 67547  97.2758 280.8558 0001740  85.3708 185.8568 15.80799488  3674
